RANGE-A                 
1 43773U 18099R   26068.70590171  .00005536  00000+0  32166-3 0  9992
2 43773  97.4107 114.1927 0009674 340.4473  19.6386 15.12458640397457
STARLINK-3794           
1 52631U 22052AK  26068.70920678 -.00000188  00000+0  62504-5 0  9998
2 52631  53.2161 269.0459 0001450  93.9157 266.2001 15.08834583211002
